[
    {
        "Altitude(m)": 622200.1059650462,
        "Argument of Periapsis(deg)": 0.0,
        "Eccentricity": 0.0,
        "Inclination(deg)": 60.0,
        "Latitude(deg)": -52.16253481650969,
        "Longitude(deg)": 17.36089159021664,
        "Mean Anomaly(deg)": -65.45450000000001,
        "RAAN(deg)": 165.0,
        "Satellite Name": "Test1 744",
        "Satellite Number": 744,
        "Semi-Major Axis(m)": 6980739.136638005,
        "Time(s)": 0
    },
    {
        "Altitude(m)": 622058.2731821903,
        "Argument of Periapsis(deg)": 0.00010418945913296404,
        "Eccentricity": 0.0,
        "Inclination(deg)": 60.0,
        "Latitude(deg)": -51.799283015116764,
        "Longitude(deg)": 18.128947598606846,
        "Mean Anomaly(deg)": -64.83439385453815,
        "RAAN(deg)": 164.99957995086024,
        "Satellite Name": "Test1 744",
        "Satellite Number": 744,
        "Semi-Major Axis(m)": 6980739.136638005,
        "Time(s)": 10
    }
]